BEIDOU 3 (C01)          
1 36287U 10001A   21129.05032845 -.00000282  00000-0  00000-0 0  9993
2 36287   1.8164  44.9100 0004698  74.8445 265.8180  1.00272067 41454
BEIDOU 5 (C06)          
1 36828U 10036A   21129.53620727 -.00000067  00000-0  00000-0 0  9998
2 36828  54.1710 179.9529 0112192 235.1069 124.7858  1.00273089 39525
BEIDOU 6 (C04)          
1 37210U 10057A   21129.61602814 -.00000112  00000-0  00000-0 0  9994
2 37210   0.7826  42.7453 0002012 140.7927  65.8270  1.00271933 38586
BEIDOU 7 (C07)          
1 37256U 10068A   21128.24910661 -.00000228  00000-0  00000-0 0  9994
2 37256  50.9319 294.4725 0083489 215.2892 285.6756  1.00267254 38081
BEIDOU 8 (C08)          
1 37384U 11013A   21129.41438671 -.00000220  00000-0  00000-0 0  9995
2 37384  59.7269  58.2976 0052554 207.0323 230.2350  1.00264279 36971
BEIDOU 9 (C09)          
1 37763U 11038A   21129.38977512 -.00000031  00000-0  00000-0 0  9991
2 37763  54.4587 182.3965 0082181 225.8881  55.3437  1.00273260 35948
BEIDOU 10 (C10)         
1 37948U 11073A   21129.35075451 -.00000166  00000-0  00000-0 0  9992
2 37948  51.0305 294.0720 0070617 213.6237 300.6895  1.00262081 34701
BEIDOU 11 (C05)         
1 38091U 12008A   21129.59578941  .00000059  00000-0  00000-0 0  9999
2 38091   1.4720  66.6287 0008802 320.2044 113.9281  1.00271645 33787
BEIDOU 12 (C11)         
1 38250U 12018A   21129.26168573 -.00000104  00000-0  00000+0 0  9998
2 38250  56.7559   6.9049 0020730 251.4173  46.3086  1.86234322 61555
BEIDOU 13 (C12)         
1 38251U 12018B   21129.18857506 -.00000104  00000-0  00000-0 0  9992
2 38251  56.6790   6.2592 0011865 257.4478  35.6774  1.86234213 61555
BEIDOU 15 (C14)         
1 38775U 12050B   21129.52652410  .00000058  00000-0  00000-0 0  9991
2 38775  55.1900 125.2941 0016153 316.1777  40.9200  1.86232283 58939
BEIDOU 16 (C02)         
1 38953U 12059A   21129.60084909 -.00000174  00000-0  00000-0 0  9999
2 38953   1.8782  84.7343 0008937 289.2814 153.9308  1.00273762 31355
BEIDOU 17 (C31)         
1 40549U 15019A   21129.48035446 -.00000177  00000-0  00000+0 0  9992
2 40549  52.5561 317.4340 0037613 186.4547 353.2670  1.00274935 22387
BEIDOU 18 (C57)         
1 40748U 15037A   21129.32549806 -.00000105  00000-0  00000-0 0  9998
2 40748  55.9416   5.3654 0005495  17.2665 277.5820  1.86233357 39380
BEIDOU 19 (C58)         
1 40749U 15037B   21129.38889123 -.00000105  00000-0  00000-0 0  9994
2 40749  55.9441   5.3506 0005752 339.5762 134.0597  1.86232228 39383
BEIDOU 20 (C18)         
1 40938U 15053A   21129.38748740 -.00000159  00000-0  00000-0 0  9990
2 40938  52.1251 280.5036 0045846 190.0253 350.5722  1.00292063 20653
BEIDOU IGSO-6 (C13)     
1 41434U 16021A   21129.55597613 -.00000185  00000-0  00000-0 0  9997
2 41434  57.5103  57.0501 0038725 216.3296 251.2702  1.00277228 18783
BEIDOU-2 G7 (C03)       
1 41586U 16037A   21129.51167029 -.00000354  00000-0  00000-0 0  9990
2 41586   1.6199  66.0639 0009362  14.1212  81.9724  1.00278718 18096
BEIDOU-3 M1 (C19)       
1 43001U 17069A   21129.30339600  .00000060  00000-0  00000-0 0  9996
2 43001  55.3446 125.2481 0012419 289.4116  74.2297  1.86231743 23874
BEIDOU-3 M2 (C20)       
1 43002U 17069B   21129.39076044  .00000059  00000-0  00000-0 0  9994
2 43002  55.3442 125.2801 0010841 306.4608 159.2917  1.86231457 23864
BEIDOU-3 M3 (C27)       
1 43107U 18003A   21129.25524501 -.00000107  00000-0  00000-0 0  9995
2 43107  55.3835   6.4656 0005660  43.2985 137.4587  1.86232499 22622
BEIDOU-3 M4 (C28)       
1 43108U 18003B   21129.18644519 -.00000107  00000-0  00000-0 0  9990
2 43108  55.3768   6.4577 0002248 262.8140 276.9956  1.86232488 22628
BEIDOU-3 M5 (C21)       
1 43207U 18018A   21128.82855369  .00000063  00000-0  00000-0 0  9993
2 43207  55.3034 125.3926 0008067 321.5455  38.4101  1.86231538 22000
BEIDOU-3 M6 (C22)       
1 43208U 18018B   21128.89522280  .00000063  00000-0  00000-0 0  9994
2 43208  55.3044 125.3939 0010468 297.8091  62.1017  1.86231675 22007
BEIDOU-3 M7 (C29)       
1 43245U 18029A   21129.39840806 -.00000105  00000-0  00000-0 0  9998
2 43245  55.3148   4.2535 0001400  22.3247 164.5915  1.86232609 21168
BEIDOU-3 M8 (C30)       
1 43246U 18029B   21129.32363258 -.00000105  00000-0  10000-3 0  9997
2 43246  55.3131   4.2873 0004979 358.5002 184.4249  1.86232752 21152
BEIDOU IGSO-7 (C16)     
1 43539U 18057A   21128.71047123 -.00000081  00000-0  00000-0 0  9994
2 43539  55.0524 179.3125 0038276 222.0156 194.5814  1.00281239 10457
BEIDOU-3 M9 (C23)       
1 43581U 18062A   21128.80688093 -.00000055  00000-0  00000+0 0  9994
2 43581  54.4170 245.9571 0002661 272.8055 133.6616  1.86231860 18898
BEIDOU-3 M10 (C24)      
1 43582U 18062B   21128.67371076 -.00000057  00000-0  00000-0 0  9993
2 43582  54.4191 245.9505 0004515   7.1718  41.3251  1.86232007 18898
BEIDOU-3 M11 (C25)      
1 43602U 18067A   21129.45674436 -.00000046  00000-0  00000-0 0  9992
2 43602  54.4921 244.5054 0006682   2.6437 253.1154  1.86231568 18392
BEIDOU-3 M12 (C26)      
1 43603U 18067B   21129.04979412 -.00000051  00000-0  00000-0 0  9996
2 43603  54.4900 244.4855 0003872 354.4020 258.9882  1.86231546 18401
BEIDOU-3 M13 (C32)      
1 43622U 18072A   21129.44046662  .00000058  00000-0  00000-0 0  9995
2 43622  55.2688 124.9407 0008851 286.5645 258.9154  1.86231673 17928
BEIDOU-3 M14 (C33)      
1 43623U 18072B   21129.29196407  .00000059  00000-0  00000-0 0  9993
2 43623  55.2687 124.9368 0007048 304.6598 231.4912  1.86231649 17921
BEIDOU-3 M15 (C34)      
1 43647U 18078A   21129.31217237 -.00000106  00000-0  10000-3 0  9991
2 43647  55.2079   4.4516 0007433   0.8875  84.0383  1.86232617 17436
BEIDOU-3 M16 (C35)      
1 43648U 18078B   21129.56052417 -.00000105  00000-0  10000-3 0  9995
2 43648  55.2063   4.4489 0005583   9.9353 150.0344  1.86232274 17456
BEIDOU-3 G1 (C59)       
1 43683U 18085A   21129.60598501 -.00000276  00000-0  00000-0 0  9991
2 43683   1.1153 231.7790 0002866  11.5961 342.3435  1.00277404  9357
BEIDOU-3 M17 (C36)      
1 43706U 18093A   21129.47255175 -.00000047  00000-0  00000-0 0  9994
2 43706  54.4992 245.7890 0008642 269.3503  88.3597  1.86231801 16791
BEIDOU-3 M18 (C37)      
1 43707U 18093B   21128.89945715 -.00000054  00000-0  00000+0 0  9993
2 43707  54.4991 245.8001 0007444 295.0073 129.2818  1.86232046 16796
BEIDOU-3 IGSO-1 (C38)   
1 44204U 19023A   21129.36095242 -.00000229  00000-0  00000-0 0  9999
2 44204  55.9672  57.3413 0015338 203.5436 207.0692  1.00250925  7665
BEIDOU-2 G8             
1 44231U 19027A   21129.61288764 -.00000247  00000-0  00000-0 0  9994
2 44231   0.3121 333.3545 0005255 219.0352  40.4547  1.00271608  7374
BEIDOU-3 IGSO-2 (C39)   
1 44337U 19035A   21129.32271947 -.00000054  00000-0  00000-0 0  9999
2 44337  55.0837 175.3493 0020372 191.6621  81.9852  1.00292410  6999
BEIDOU-3 M23 (C45)      
1 44542U 19061A   21129.39242942 -.00000048  00000-0  10000-3 0  9993
2 44542  54.7226 245.8545 0007345 332.7974  15.1816  1.86231107 11052
BEIDOU-3 M24 (C46)      
1 44543U 19061B   21128.54231971 -.00000057  00000-0  10000-3 0  9990
2 44543  54.7221 245.8532 0004521 323.9723  84.8510  1.86231611 11055
BEIDOU-3 IGSO-3         
1 44709U 19073A   21129.34056124 -.00000175  00000-0  00000-0 0  9998
2 44709  57.9036 300.5557 0018517 197.3733 318.2415  1.00286591  5759
BEIDOU-3 M21            
1 44793U 19078A   21127.37063464 -.00000112  00000-0  10000-3 0  9997
2 44793  55.0594   4.5868 0007440   7.8055 169.9074  1.86232295  9887
BEIDOU-3 M22            
1 44794U 19078B   21129.13798172 -.00000107  00000-0  00000-0 0  9995
2 44794  55.0366   4.5264 0005300   5.7450 187.8027  1.86232831  9911
BEIDOU-3 M19            
1 44864U 19090A   21129.35896125  .00000059  00000-0  00000-0 0  9993
2 44864  55.2028 125.1769 0018168 268.8488 267.4584  1.86231858  9501
BEIDOU-3 M20            
1 44865U 19090B   21129.14840740  .00000061  00000-0  00000-0 0  9996
2 44865  55.2053 125.2134 0016900 282.2414 202.8188  1.86231790  9483
BEIDOU-3 G2             
1 45344U 20017A   21129.60006397 -.00000145  00000-0  00000-0 0  9997
2 45344   2.4810 335.7362 0003792 108.5460  79.4156  1.00273498  4573
BEIDOU-3 G3             
1 45807U 20040A   21129.60608324 -.00000355  00000-0  00000-0 0  9998
2 45807   2.3724 298.5562 0005674  20.0908 237.5657  1.00265227  3386
